[{"OBJECT_NAME":"CHUANGXIN 1-02 (CX-1-02)","OBJECT_ID":"2008-056B","EPOCH":"2026-03-09T22:48:06.707232","MEAN_MOTION":14.30130448,"ECCENTRICITY":0.00153994,"INCLINATION":98.625,"RA_OF_ASC_NODE":96.1592,"ARG_OF_PERICENTER":73.2963,"MEAN_ANOMALY":286.9908,"EPHEMERIS_TYPE":0,"CLASSIFICATION_TYPE":"U","NORAD_CAT_ID":33434,"ELEMENT_SET_NO":999,"REV_AT_EPOCH":90443,"BSTAR":1.1632331e-5,"MEAN_MOTION_DOT":-1.4e-7,"MEAN_MOTION_DDOT":0},{"OBJECT_NAME":"THORAD AGENA D DEB","OBJECT_ID":"1970-025PZ","EPOCH":"2026-03-09T13:44:24.356832","MEAN_MOTION":14.00682499,"ECCENTRICITY":0.01424192,"INCLINATION":98.75,"RA_OF_ASC_NODE":287.6081,"ARG_OF_PERICENTER":214.4166,"MEAN_ANOMALY":205.9219,"EPHEMERIS_TYPE":0,"CLASSIFICATION_TYPE":"U","NORAD_CAT_ID":19391,"ELEMENT_SET_NO":999,"REV_AT_EPOCH":90514,"BSTAR":0.0012903278,"MEAN_MOTION_DOT":2.056e-5,"MEAN_MOTION_DDOT":0}]
